{"type": "FeatureCollection", "features": [ {"type": "Feature", "properties": {"norad_id": 40664, "name": "SKY MEXICO-1", "group": "intelsat", "lat": -0.04028475227674418, "lon": -97.34980631873647, "alt_km": 35776.994696337475, "timestamp": "2025-12-20T16:47:35.959062+00:00", "meta": {"OBJECT_NAME": "SKY MEXICO-1", "OBJECT_ID": "2015-026B", "EPOCH": "2025-12-20T12:05:09.616992", "MEAN_MOTION": 1.00271901, "ECCENTRICITY": 0.0002328, "INCLINATION": 0.0138, "RA_OF_ASC_NODE": 342.5656, "ARG_OF_PERICENTER": 303.1967, "MEAN_ANOMALY": 266.1047, "EPHEMERIS_TYPE": 0, "CLASSIFICATION_TYPE": "U", "NORAD_CAT_ID": 40664, "ELEMENT_SET_NO": 999, "REV_AT_EPOCH": 3866, "BSTAR": 0, "MEAN_MOTION_DOT": -2.11e-06, "MEAN_MOTION_DDOT": 0}, "tle": {"line1": "1 40664U 15026B   25354.50358353 -.00000211  00000+0  00000+0 0  9998", "line2": "2 40664   0.0138 342.5656 0002328 303.1967 266.1047  1.00271901 38669"}}, "geometry": {"type": "Point", "coordinates": [-97.34980631873647, -0.04028475227674418]}}, {"type": "Feature", "properties": {"norad_id": 40874, "name": "INTELSAT 34 (IS-34)", "group": "intelsat", "lat": -0.03160079297435654, "lon": -74.06601477836703, "alt_km": 35787.41481402808, "timestamp": "2025-12-20T16:47:35.959073+00:00", "meta": {"OBJECT_NAME": "INTELSAT 34 (IS-34)", "OBJECT_ID": "2015-039A", "EPOCH": "2025-12-20T06:07:04.479744", "MEAN_MOTION": 1.00273654, "ECCENTRICITY": 8.19e-05, "INCLINATION": 0.0141, "RA_OF_ASC_NODE": 330.5177, "ARG_OF_PERICENTER": 193.9408, "MEAN_ANOMALY": 320.9045, "EPHEMERIS_TYPE": 0, "CLASSIFICATION_TYPE": "U", "NORAD_CAT_ID": 40874, "ELEMENT_SET_NO": 999, "REV_AT_EPOCH": 3783, "BSTAR": 0, "MEAN_MOTION_DOT": -2.61e-06, "MEAN_MOTION_DDOT": 0}, "tle": {"line1": "1 40874U 15039A   25354.25491296 -.00000261  00000+0  00000+0 0  9996", "line2": "2 40874   0.0141 330.5177 0000819 193.9408 320.9045  1.00273654 37831"}}, "geometry": {"type": "Point", "coordinates": [-74.06601477836703, -0.03160079297435654]}}, {"type": "Feature", "properties": {"norad_id": 41581, "name": "INTELSAT 31 (IS-31)", "group": "intelsat", "lat": -0.026193811750597373, "lon": -113.60913799067613, "alt_km": 35778.2278940661, "timestamp": "2025-12-20T16:47:35.959084+00:00", "meta": {"OBJECT_NAME": "INTELSAT 31 (IS-31)", "OBJECT_ID": "2016-035A", "EPOCH": "2025-12-20T12:34:47.372160", "MEAN_MOTION": 1.00275908, "ECCENTRICITY": 0.0001981, "INCLINATION": 0.0288, "RA_OF_ASC_NODE": 268.1426, "ARG_OF_PERICENTER": 301.6043, "MEAN_ANOMALY": 333.2619, "EPHEMERIS_TYPE": 0, "CLASSIFICATION_TYPE": "U", "NORAD_CAT_ID": 41581, "ELEMENT_SET_NO": 999, "REV_AT_EPOCH": 3489, "BSTAR": 0, "MEAN_MOTION_DOT": -1.28e-06, "MEAN_MOTION_DDOT": 0}, "tle": {"line1": "1 41581U 16035A   25354.52415940 -.00000128  00000+0  00000+0 0  9993", "line2": "2 41581   0.0288 268.1426 0001981 301.6043 333.2619  1.00275908 34897"}}, "geometry": {"type": "Point", "coordinates": [-113.60913799067613, -0.026193811750597373]}}, {"type": "Feature", "properties": {"norad_id": 41747, "name": "INTELSAT 36 (IS-36)", "group": "intelsat", "lat": 0.02748344076983621, "lon": 49.922869988953096, "alt_km": 35785.09945175763, "timestamp": "2025-12-20T16:47:35.959096+00:00", "meta": {"OBJECT_NAME": "INTELSAT 36 (IS-36)", "OBJECT_ID": "2016-053A", "EPOCH": "2025-12-20T10:07:56.413344", "MEAN_MOTION": 1.00271763, "ECCENTRICITY": 0.0001172, "INCLINATION": 0.0107, "RA_OF_ASC_NODE": 8.1508, "ARG_OF_PERICENTER": 323.4554, "MEAN_ANOMALY": 338.1246, "EPHEMERIS_TYPE": 0, "CLASSIFICATION_TYPE": "U", "NORAD_CAT_ID": 41747, "ELEMENT_SET_NO": 999, "REV_AT_EPOCH": 3415, "BSTAR": 0, "MEAN_MOTION_DOT": -1e-08, "MEAN_MOTION_DDOT": 0}, "tle": {"line1": "1 41747U 16053A   25354.42218071 -.00000001  00000+0  00000+0 0  9992", "line2": "2 41747   0.0107   8.1508 0001172 323.4554 338.1246  1.00271763 34159"}}, "geometry": {"type": "Point", "coordinates": [49.922869988953096, 0.02748344076983621]}}, {"type": "Feature", "properties": {"norad_id": 41945, "name": "INTELSAT 32E (IS-32E)", "group": "intelsat", "lat": -0.03607643492066091, "lon": -61.75318703823627, "alt_km": 35785.48255854847, "timestamp": "2025-12-20T16:47:35.959108+00:00", "meta": {"OBJECT_NAME": "INTELSAT 32E (IS-32E)", "OBJECT_ID": "2017-007B", "EPOCH": "2025-12-20T07:53:24.298080", "MEAN_MOTION": 1.00274334, "ECCENTRICITY": 3.54e-05, "INCLINATION": 0.0278, "RA_OF_ASC_NODE": 69.9783, "ARG_OF_PERICENTER": 320.6624, "MEAN_ANOMALY": 133.7019, "EPHEMERIS_TYPE": 0, "CLASSIFICATION_TYPE": "U", "NORAD_CAT_ID": 41945, "ELEMENT_SET_NO": 999, "REV_AT_EPOCH": 3243, "BSTAR": 0, "MEAN_MOTION_DOT": -2.45e-06, "MEAN_MOTION_DDOT": 0}, "tle": {"line1": "1 41945U 17007B   25354.32875345 -.00000245  00000+0  00000+0 0  9994", "line2": "2 41945   0.0278  69.9783 0000354 320.6624 133.7019  1.00274334 32439"}}, "geometry": {"type": "Point", "coordinates": [-61.75318703823627, -0.03607643492066091]}}, {"type": "Feature", "properties": {"norad_id": 42818, "name": "INTELSAT 35E (IS-35E)", "group": "intelsat", "lat": -0.039947414852441354, "lon": -53.055232335751946, "alt_km": 35779.92022785832, "timestamp": "2025-12-20T16:47:35.959119+00:00", "meta": {"OBJECT_NAME": "INTELSAT 35E (IS-35E)", "OBJECT_ID": "2017-041A", "EPOCH": "2025-12-20T06:13:03.908064", "MEAN_MOTION": 1.00271141, "ECCENTRICITY": 0.0001848, "INCLINATION": 0.0185, "RA_OF_ASC_NODE": 20.7222, "ARG_OF_PERICENTER": 250.8671, "MEAN_ANOMALY": 236.2857, "EPHEMERIS_TYPE": 0, "CLASSIFICATION_TYPE": "U", "NORAD_CAT_ID": 42818, "ELEMENT_SET_NO": 999, "REV_AT_EPOCH": 3102, "BSTAR": 0, "MEAN_MOTION_DOT": -2.14e-06, "MEAN_MOTION_DDOT": 0}, "tle": {"line1": "1 42818U 17041A   25354.25907301 -.00000214  00000+0  00000+0 0  9998", "line2": "2 42818   0.0185  20.7222 0001848 250.8671 236.2857  1.00271141 31020"}}, "geometry": {"type": "Point", "coordinates": [-53.055232335751946, -0.039947414852441354]}}, {"type": "Feature", "properties": {"norad_id": 42950, "name": "INTELSAT 37E (IS-37E)", "group": "intelsat", "lat": -0.03255842744011349, "lon": -36.555314968207334, "alt_km": 35781.047737851775, "timestamp": "2025-12-20T16:47:35.959130+00:00", "meta": {"OBJECT_NAME": "INTELSAT 37E (IS-37E)", "OBJECT_ID": "2017-059A", "EPOCH": "2025-12-20T08:00:31.115808", "MEAN_MOTION": 1.00270864, "ECCENTRICITY": 0.0002953, "INCLINATION": 0.0188, "RA_OF_ASC_NODE": 17.8446, "ARG_OF_PERICENTER": 240.5799, "MEAN_ANOMALY": 292.869, "EPHEMERIS_TYPE": 0, "CLASSIFICATION_TYPE": "U", "NORAD_CAT_ID": 42950, "ELEMENT_SET_NO": 999, "REV_AT_EPOCH": 3027, "BSTAR": 0, "MEAN_MOTION_DOT": -1.17e-06, "MEAN_MOTION_DDOT": 0}, "tle": {"line1": "1 42950U 17059A   25354.33369347 -.00000117  00000+0  00000+0 0  9997", "line2": "2 42950   0.0188  17.8446 0002953 240.5799 292.8690  1.00270864 30270"}}, "geometry": {"type": "Point", "coordinates": [-36.555314968207334, -0.03255842744011349]}}, {"type": "Feature", "properties": {"norad_id": 43632, "name": "AZERSPACE 2 (IS-38)", "group": "intelsat", "lat": 0.00309421429137269, "lon": 26.546357272396676, "alt_km": 35788.29446864831, "timestamp": "2025-12-20T16:47:35.959142+00:00", "meta": {"OBJECT_NAME": "AZERSPACE 2 (IS-38)", "OBJECT_ID": "2018-074A", "EPOCH": "2025-12-20T04:53:04.070112", "MEAN_MOTION": 1.00270817, "ECCENTRICITY": 0.0001162, "INCLINATION": 0.0082, "RA_OF_ASC_NODE": 42.9819, "ARG_OF_PERICENTER": 229.623, "MEAN_ANOMALY": 294.8181, "EPHEMERIS_TYPE": 0, "CLASSIFICATION_TYPE": "U", "NORAD_CAT_ID": 43632, "ELEMENT_SET_NO": 999, "REV_AT_EPOCH": 2665, "BSTAR": 0, "MEAN_MOTION_DOT": 1.6e-06, "MEAN_MOTION_DDOT": 0}, "tle": {"line1": "1 43632U 18074A   25354.20351933  .00000160  00000+0  00000+0 0  9998", "line2": "2 43632   0.0082  42.9819 0001162 229.6230 294.8181  1.00270817 26655"}}, "geometry": {"type": "Point", "coordinates": [26.546357272396676, 0.00309421429137269]}}, {"type": "Feature", "properties": {"norad_id": 43633, "name": "HORIZONS-3E", "group": "intelsat", "lat": -0.0037676043682410092, "lon": 150.389389163958, "alt_km": 35791.075041402655, "timestamp": "2025-12-20T16:47:35.959154+00:00", "meta": {"OBJECT_NAME": "HORIZONS-3E", "OBJECT_ID": "2018-074B", "EPOCH": "2025-12-20T11:32:38.876928", "MEAN_MOTION": 1.00267376, "ECCENTRICITY": 9.05e-05, "INCLINATION": 0.0089, "RA_OF_ASC_NODE": 234.5772, "ARG_OF_PERICENTER": 86.8436, "MEAN_ANOMALY": 110.0297, "EPHEMERIS_TYPE": 0, "CLASSIFICATION_TYPE": "U", "NORAD_CAT_ID": 43633, "ELEMENT_SET_NO": 999, "REV_AT_EPOCH": 2654, "BSTAR": 0, "MEAN_MOTION_DOT": 0, "MEAN_MOTION_DDOT": 0}, "tle": {"line1": "1 43633U 18074B   25354.48100552  .00000000  00000+0  00000+0 0  9991", "line2": "2 43633   0.0089 234.5772 0000905  86.8436 110.0297  1.00267376 26546"}}, "geometry": {"type": "Point", "coordinates": [150.389389163958, -0.0037676043682410092]}}, {"type": "Feature", "properties": {"norad_id": 44333, "name": "AT&T T-16", "group": "intelsat", "lat": -0.015634890273986585, "lon": -119.42199147012502, "alt_km": 35786.527058582054, "timestamp": "2025-12-20T16:47:35.959165+00:00", "meta": {"OBJECT_NAME": "AT&T T-16", "OBJECT_ID": "2019-034A", "EPOCH": "2025-12-20T05:59:17.333952", "MEAN_MOTION": 1.00272894, "ECCENTRICITY": 9.98e-05, "INCLINATION": 0.0237, "RA_OF_ASC_NODE": 62.8934, "ARG_OF_PERICENTER": 77.7615, "MEAN_ANOMALY": 297.398, "EPHEMERIS_TYPE": 0, "CLASSIFICATION_TYPE": "U", "NORAD_CAT_ID": 44333, "ELEMENT_SET_NO": 999, "REV_AT_EPOCH": 2383, "BSTAR": 0, "MEAN_MOTION_DOT": -9.2e-07, "MEAN_MOTION_DDOT": 0}, "tle": {"line1": "1 44333U 19034A   25354.24950618 -.00000092  00000+0  00000+0 0  9998", "line2": "2 44333   0.0237  62.8934 0000998  77.7615 297.3980  1.00272894 23839"}}, "geometry": {"type": "Point", "coordinates": [-119.42199147012502, -0.015634890273986585]}}]}